STARLINK-35647          
1 66388U 25257J   25338.33335648 -.02224442  00000+0 -57508-1 0  9995
2 66388  53.1601 304.0624 0001693  65.7768  17.4054 15.41880944  5141
STARLINK-35694          
1 66389U 25257K   25337.41094860  .00018953  00000+0  34878-3 0  9993
2 66389  53.1590 308.4226 0001835 114.7525 245.3675 15.49244836  4938
STARLINK-35665          
1 66390U 25257L   25338.30787873  .00145314  00000+0  25676-2 0  9994
2 66390  53.1593 304.0612 0001525  92.4289 267.6894 15.49362870  5175
STARLINK-35656          
1 66391U 25257M   25338.33335648 -.00051626  00000+0 -12900-2 0  9997
2 66391  53.1602 303.9936 0001162 108.3175   2.6054 15.39607311  5246
STARLINK-35671          
1 66392U 25257N   25338.33335648 -.02100618  00000+0 -56034-1 0  9991
2 66392  53.1602 304.0570 0001225  73.9275  11.8731 15.41334374  5143
STARLINK-35652          
1 66393U 25257P   25338.24928864 -.00283392  00000+0 -53735-2 0  9995
2 66393  53.1593 304.4102 0000842 333.1937  26.9028 15.48780318  5065
STARLINK-35672          
1 66394U 25257Q   25338.31322507 -.00405372  00000+0 -79568-2 0  9992
2 66394  53.1595 304.0980 0001575  56.0118 304.1040 15.48246125  5073
STARLINK-35681          
1 66395U 25257R   25338.24817594  .00120626  00000+0  21385-2 0  9998
2 66395  53.1595 304.4037 0001238  87.7747 272.3404 15.49376435  4995
STARLINK-35669          
1 66396U 25257S   25338.31234288  .00085492  00000+0  15263-2 0  9999
2 66396  53.1592 304.0920 0001461  96.8275 263.2900 15.49349426  5075
STARLINK-35510          
1 66397U 25257T   25338.24749349  .00125457  00000+0  22240-2 0  9990
2 66397  53.1592 304.3984 0001403  89.9163 270.2007 15.49357130  5060
STARLINK-35642          
1 66398U 25257U   25338.31165435  .00154059  00000+0  27171-2 0  9995
2 66398  53.1592 304.0872 0001297  87.9652 272.1505 15.49378769  5072
STARLINK-35657          
1 66399U 25257V   25338.24680067  .00127932  00000+0  22650-2 0  9998
2 66399  53.1594 304.3938 0001208  88.8873 271.2274 15.49382223  5060
