CCSDS_OMM_VERS = 2.0
CREATION_DATE  = 
ORIGINATOR     = 

OBJECT_NAME    = STARLINK-35647
OBJECT_ID      = 2025-257J
CENTER_NAME    = EARTH
REF_FRAME      = TEME
TIME_SYSTEM    = UTC
MEAN_ELEMENT_THEORY = SGP/SGP4

EPOCH          = 2025-12-04T08:00:01.999872
MEAN_MOTION    = 15.41880944
ECCENTRICITY   = .0001693
INCLINATION    = 53.1601
RA_OF_ASC_NODE = 304.0624
ARG_OF_PERICENTER = 65.7768
MEAN_ANOMALY   = 17.4054

EPHEMERIS_TYPE = 0
CLASSIFICATION_TYPE = U
NORAD_CAT_ID   = 66388
ELEMENT_SET_NO = 999
REV_AT_EPOCH   = 514
BSTAR          = -.57507667E-1
MEAN_MOTION_DOT = -.2224442E-1
MEAN_MOTION_DDOT = 0

CCSDS_OMM_VERS = 2.0
CREATION_DATE  = 
ORIGINATOR     = 

OBJECT_NAME    = STARLINK-35694
OBJECT_ID      = 2025-257K
CENTER_NAME    = EARTH
REF_FRAME      = TEME
TIME_SYSTEM    = UTC
MEAN_ELEMENT_THEORY = SGP/SGP4

EPOCH          = 2025-12-03T09:51:45.959040
MEAN_MOTION    = 15.49244836
ECCENTRICITY   = .00018355
INCLINATION    = 53.1590
RA_OF_ASC_NODE = 308.4226
ARG_OF_PERICENTER = 114.7525
MEAN_ANOMALY   = 245.3675

EPHEMERIS_TYPE = 0
CLASSIFICATION_TYPE = U
NORAD_CAT_ID   = 66389
ELEMENT_SET_NO = 999
REV_AT_EPOCH   = 493
BSTAR          = .34877553E-3
MEAN_MOTION_DOT = .18953E-3
MEAN_MOTION_DDOT = 0

CCSDS_OMM_VERS = 2.0
CREATION_DATE  = 
ORIGINATOR     = 

OBJECT_NAME    = STARLINK-35665
OBJECT_ID      = 2025-257L
CENTER_NAME    = EARTH
REF_FRAME      = TEME
TIME_SYSTEM    = UTC
MEAN_ELEMENT_THEORY = SGP/SGP4

EPOCH          = 2025-12-04T07:23:20.722272
MEAN_MOTION    = 15.49362870
ECCENTRICITY   = .00015252
INCLINATION    = 53.1593
RA_OF_ASC_NODE = 304.0612
ARG_OF_PERICENTER = 92.4289
MEAN_ANOMALY   = 267.6894

EPHEMERIS_TYPE = 0
CLASSIFICATION_TYPE = U
NORAD_CAT_ID   = 66390
ELEMENT_SET_NO = 999
REV_AT_EPOCH   = 517
BSTAR          = .25676262E-2
MEAN_MOTION_DOT = .145314E-2
MEAN_MOTION_DDOT = 0

CCSDS_OMM_VERS = 2.0
CREATION_DATE  = 
ORIGINATOR     = 

OBJECT_NAME    = STARLINK-35656
OBJECT_ID      = 2025-257M
CENTER_NAME    = EARTH
REF_FRAME      = TEME
TIME_SYSTEM    = UTC
MEAN_ELEMENT_THEORY = SGP/SGP4

EPOCH          = 2025-12-04T08:00:01.999872
MEAN_MOTION    = 15.39607311
ECCENTRICITY   = .00011621
INCLINATION    = 53.1602
RA_OF_ASC_NODE = 303.9936
ARG_OF_PERICENTER = 108.3175
MEAN_ANOMALY   = 2.6054

EPHEMERIS_TYPE = 0
CLASSIFICATION_TYPE = U
NORAD_CAT_ID   = 66391
ELEMENT_SET_NO = 999
REV_AT_EPOCH   = 524
BSTAR          = -.12899509E-2
MEAN_MOTION_DOT = -.51626E-3
MEAN_MOTION_DDOT = 0

CCSDS_OMM_VERS = 2.0
CREATION_DATE  = 
ORIGINATOR     = 

OBJECT_NAME    = STARLINK-35671
OBJECT_ID      = 2025-257N
CENTER_NAME    = EARTH
REF_FRAME      = TEME
TIME_SYSTEM    = UTC
MEAN_ELEMENT_THEORY = SGP/SGP4

EPOCH          = 2025-12-04T08:00:01.999872
MEAN_MOTION    = 15.41334374
ECCENTRICITY   = .00012256
INCLINATION    = 53.1602
RA_OF_ASC_NODE = 304.0570
ARG_OF_PERICENTER = 73.9275
MEAN_ANOMALY   = 11.8731

EPHEMERIS_TYPE = 0
CLASSIFICATION_TYPE = U
NORAD_CAT_ID   = 66392
ELEMENT_SET_NO = 999
REV_AT_EPOCH   = 514
BSTAR          = -.56034479E-1
MEAN_MOTION_DOT = -.2100618E-1
MEAN_MOTION_DDOT = 0

CCSDS_OMM_VERS = 2.0
CREATION_DATE  = 
ORIGINATOR     = 

OBJECT_NAME    = STARLINK-35652
OBJECT_ID      = 2025-257P
CENTER_NAME    = EARTH
REF_FRAME      = TEME
TIME_SYSTEM    = UTC
MEAN_ELEMENT_THEORY = SGP/SGP4

EPOCH          = 2025-12-04T05:58:58.538496
MEAN_MOTION    = 15.48780318
ECCENTRICITY   = .00008422
INCLINATION    = 53.1593
RA_OF_ASC_NODE = 304.4102
ARG_OF_PERICENTER = 333.1937
MEAN_ANOMALY   = 26.9028

EPHEMERIS_TYPE = 0
CLASSIFICATION_TYPE = U
NORAD_CAT_ID   = 66393
ELEMENT_SET_NO = 999
REV_AT_EPOCH   = 506
BSTAR          = -.53734908E-2
MEAN_MOTION_DOT = -.283392E-2
MEAN_MOTION_DDOT = 0

CCSDS_OMM_VERS = 2.0
CREATION_DATE  = 
ORIGINATOR     = 

OBJECT_NAME    = STARLINK-35672
OBJECT_ID      = 2025-257Q
CENTER_NAME    = EARTH
REF_FRAME      = TEME
TIME_SYSTEM    = UTC
MEAN_ELEMENT_THEORY = SGP/SGP4

EPOCH          = 2025-12-04T07:31:02.646048
MEAN_MOTION    = 15.48246125
ECCENTRICITY   = .00015758
INCLINATION    = 53.1595
RA_OF_ASC_NODE = 304.0980
ARG_OF_PERICENTER = 56.0118
MEAN_ANOMALY   = 304.1040

EPHEMERIS_TYPE = 0
CLASSIFICATION_TYPE = U
NORAD_CAT_ID   = 66394
ELEMENT_SET_NO = 999
REV_AT_EPOCH   = 507
BSTAR          = -.79567556E-2
MEAN_MOTION_DOT = -.405372E-2
MEAN_MOTION_DDOT = 0

CCSDS_OMM_VERS = 2.0
CREATION_DATE  = 
ORIGINATOR     = 

OBJECT_NAME    = STARLINK-35681
OBJECT_ID      = 2025-257R
CENTER_NAME    = EARTH
REF_FRAME      = TEME
TIME_SYSTEM    = UTC
MEAN_ELEMENT_THEORY = SGP/SGP4

EPOCH          = 2025-12-04T05:57:22.401216
MEAN_MOTION    = 15.49376435
ECCENTRICITY   = .0001238
INCLINATION    = 53.1595
RA_OF_ASC_NODE = 304.4037
ARG_OF_PERICENTER = 87.7747
MEAN_ANOMALY   = 272.3404

EPHEMERIS_TYPE = 0
CLASSIFICATION_TYPE = U
NORAD_CAT_ID   = 66395
ELEMENT_SET_NO = 999
REV_AT_EPOCH   = 499
BSTAR          = .21385153E-2
MEAN_MOTION_DOT = .120626E-2
MEAN_MOTION_DDOT = 0

CCSDS_OMM_VERS = 2.0
CREATION_DATE  = 
ORIGINATOR     = 

OBJECT_NAME    = STARLINK-35669
OBJECT_ID      = 2025-257S
CENTER_NAME    = EARTH
REF_FRAME      = TEME
TIME_SYSTEM    = UTC
MEAN_ELEMENT_THEORY = SGP/SGP4

EPOCH          = 2025-12-04T07:29:46.424832
MEAN_MOTION    = 15.49349426
ECCENTRICITY   = .0001461
INCLINATION    = 53.1592
RA_OF_ASC_NODE = 304.0920
ARG_OF_PERICENTER = 96.8275
MEAN_ANOMALY   = 263.2900

EPHEMERIS_TYPE = 0
CLASSIFICATION_TYPE = U
NORAD_CAT_ID   = 66396
ELEMENT_SET_NO = 999
REV_AT_EPOCH   = 507
BSTAR          = .15262589E-2
MEAN_MOTION_DOT = .85492E-3
MEAN_MOTION_DDOT = 0

CCSDS_OMM_VERS = 2.0
CREATION_DATE  = 
ORIGINATOR     = 

OBJECT_NAME    = STARLINK-35510
OBJECT_ID      = 2025-257T
CENTER_NAME    = EARTH
REF_FRAME      = TEME
TIME_SYSTEM    = UTC
MEAN_ELEMENT_THEORY = SGP/SGP4

EPOCH          = 2025-12-04T05:56:23.437536
MEAN_MOTION    = 15.49357130
ECCENTRICITY   = .00014032
INCLINATION    = 53.1592
RA_OF_ASC_NODE = 304.3984
ARG_OF_PERICENTER = 89.9163
MEAN_ANOMALY   = 270.2007

EPHEMERIS_TYPE = 0
CLASSIFICATION_TYPE = U
NORAD_CAT_ID   = 66397
ELEMENT_SET_NO = 999
REV_AT_EPOCH   = 506
BSTAR          = .22239664E-2
MEAN_MOTION_DOT = .125457E-2
MEAN_MOTION_DDOT = 0

CCSDS_OMM_VERS = 2.0
CREATION_DATE  = 
ORIGINATOR     = 

OBJECT_NAME    = STARLINK-35642
OBJECT_ID      = 2025-257U
CENTER_NAME    = EARTH
REF_FRAME      = TEME
TIME_SYSTEM    = UTC
MEAN_ELEMENT_THEORY = SGP/SGP4

EPOCH          = 2025-12-04T07:28:46.935840
MEAN_MOTION    = 15.49378769
ECCENTRICITY   = .00012971
INCLINATION    = 53.1592
RA_OF_ASC_NODE = 304.0872
ARG_OF_PERICENTER = 87.9652
MEAN_ANOMALY   = 272.1505

EPHEMERIS_TYPE = 0
CLASSIFICATION_TYPE = U
NORAD_CAT_ID   = 66398
ELEMENT_SET_NO = 999
REV_AT_EPOCH   = 507
BSTAR          = .27170893E-2
MEAN_MOTION_DOT = .154059E-2
MEAN_MOTION_DDOT = 0

CCSDS_OMM_VERS = 2.0
CREATION_DATE  = 
ORIGINATOR     = 

OBJECT_NAME    = STARLINK-35657
OBJECT_ID      = 2025-257V
CENTER_NAME    = EARTH
REF_FRAME      = TEME
TIME_SYSTEM    = UTC
MEAN_ELEMENT_THEORY = SGP/SGP4

EPOCH          = 2025-12-04T05:55:23.577888
MEAN_MOTION    = 15.49382223
ECCENTRICITY   = .00012082
INCLINATION    = 53.1594
RA_OF_ASC_NODE = 304.3938
ARG_OF_PERICENTER = 88.8873
MEAN_ANOMALY   = 271.2274

EPHEMERIS_TYPE = 0
CLASSIFICATION_TYPE = U
NORAD_CAT_ID   = 66399
ELEMENT_SET_NO = 999
REV_AT_EPOCH   = 506
BSTAR          = .22649568E-2
MEAN_MOTION_DOT = .127932E-2
MEAN_MOTION_DDOT = 0

